STARLINK-2688
1 28660C 21044Y   21325.13906042  .00000165  00000-0  11062-4 0  3252
2 28660  53.0551 327.6009 0001804  57.7281 235.5671 15.06398237    19
